[{"OBJECT_NAME":"YAOGAN-43 02E","OBJECT_ID":"2024-156E","EPOCH":"2026-03-09T13:12:54.412128","MEAN_MOTION":15.23060161,"ECCENTRICITY":0.0005405,"INCLINATION":34.9961,"RA_OF_ASC_NODE":104.8049,"ARG_OF_PERICENTER":120.2112,"MEAN_ANOMALY":239.9138,"EPHEMERIS_TYPE":0,"CLASSIFICATION_TYPE":"U","NORAD_CAT_ID":60949,"ELEMENT_SET_NO":999,"REV_AT_EPOCH":8424,"BSTAR":0.00066597,"MEAN_MOTION_DOT":0.00016075,"MEAN_MOTION_DDOT":0},{"OBJECT_NAME":"CZ-4B DEB","OBJECT_ID":"2010-051E","EPOCH":"2026-03-08T22:01:50.125728","MEAN_MOTION":15.23766972,"ECCENTRICITY":0.00561086,"INCLINATION":97.769,"RA_OF_ASC_NODE":240.5013,"ARG_OF_PERICENTER":301.1291,"MEAN_ANOMALY":58.4449,"EPHEMERIS_TYPE":0,"CLASSIFICATION_TYPE":"U","NORAD_CAT_ID":38184,"ELEMENT_SET_NO":999,"REV_AT_EPOCH":82066,"BSTAR":0.0024566319,"MEAN_MOTION_DOT":0.00062123,"MEAN_MOTION_DDOT":0}]
